{"type": "FeatureCollection", "features": [ {"type": "Feature", "properties": {"norad_id": 30960, "name": "FENGYUN 1C DEB", "group": "fengyun-1c-debris", "lat": 71.35526647173641, "lon": 81.98385865683255, "alt_km": 609.1839306540205, "timestamp": "2025-12-19T08:58:49.618130+00:00", "meta": {"OBJECT_NAME": "FENGYUN 1C DEB", "OBJECT_ID": "1999-025BBA", "EPOCH": "2025-12-18T03:10:39.664992", "MEAN_MOTION": 14.66992956, "ECCENTRICITY": 0.01961531, "INCLINATION": 99.0009, "RA_OF_ASC_NODE": 108.6406, "ARG_OF_PERICENTER": 145.2813, "MEAN_ANOMALY": 216.1374, "EPHEMERIS_TYPE": 0, "CLASSIFICATION_TYPE": "U", "NORAD_CAT_ID": 30960, "ELEMENT_SET_NO": 999, "REV_AT_EPOCH": 98777, "BSTAR": 0.0011958402, "MEAN_MOTION_DOT": 8.891e-05, "MEAN_MOTION_DDOT": 0}, "tle": {"line1": "1 30960U 99025BBA 25352.13240353  .00008891  00000+0  11958-2 0  9992", "line2": "2 30960  99.0009 108.6406 0196153 145.2813 216.1374 14.66992956987770"}}, "geometry": {"type": "Point", "coordinates": [81.98385865683255, 71.35526647173641]}}, {"type": "Feature", "properties": {"norad_id": 30967, "name": "FENGYUN 1C DEB", "group": "fengyun-1c-debris", "lat": 67.58738886518645, "lon": -82.0287786871473, "alt_km": 753.4603796985866, "timestamp": "2025-12-19T08:58:49.618140+00:00", "meta": {"OBJECT_NAME": "FENGYUN 1C DEB", "OBJECT_ID": "1999-025BBH", "EPOCH": "2025-12-17T08:51:58.316544", "MEAN_MOTION": 14.57173124, "ECCENTRICITY": 0.00946449, "INCLINATION": 98.7642, "RA_OF_ASC_NODE": 297.8284, "ARG_OF_PERICENTER": 225.2916, "MEAN_ANOMALY": 134.0546, "EPHEMERIS_TYPE": 0, "CLASSIFICATION_TYPE": "U", "NORAD_CAT_ID": 30967, "ELEMENT_SET_NO": 999, "REV_AT_EPOCH": 99081, "BSTAR": 0.00055251457, "MEAN_MOTION_DOT": 2.594e-05, "MEAN_MOTION_DDOT": 0}, "tle": {"line1": "1 30967U 99025BBH 25351.36942496  .00002594  00000+0  55251-3 0  9999", "line2": "2 30967  98.7642 297.8284 0094644 225.2916 134.0546 14.57173124990812"}}, "geometry": {"type": "Point", "coordinates": [-82.0287786871473, 67.58738886518645]}}, {"type": "Feature", "properties": {"norad_id": 30971, "name": "FENGYUN 1C DEB", "group": "fengyun-1c-debris", "lat": -78.95021870967749, "lon": 161.91257207937673, "alt_km": 667.19473474611, "timestamp": "2025-12-19T08:58:49.618151+00:00", "meta": {"OBJECT_NAME": "FENGYUN 1C DEB", "OBJECT_ID": "1999-025BBM", "EPOCH": "2025-12-17T08:46:03.055296", "MEAN_MOTION": 14.71744333, "ECCENTRICITY": 0.01639021, "INCLINATION": 99.2095, "RA_OF_ASC_NODE": 35.8227, "ARG_OF_PERICENTER": 176.9152, "MEAN_ANOMALY": 247.6493, "EPHEMERIS_TYPE": 0, "CLASSIFICATION_TYPE": "U", "NORAD_CAT_ID": 30971, "ELEMENT_SET_NO": 999, "REV_AT_EPOCH": 99785, "BSTAR": 0.00047613959, "MEAN_MOTION_DOT": 3.596e-05, "MEAN_MOTION_DDOT": 0}, "tle": {"line1": "1 30971U 99025BBM 25351.36531314  .00003596  00000+0  47614-3 0  9994", "line2": "2 30971  99.2095  35.8227 0163902 176.9152 247.6493 14.71744333997855"}}, "geometry": {"type": "Point", "coordinates": [161.91257207937673, -78.95021870967749]}}, {"type": "Feature", "properties": {"norad_id": 30979, "name": "FENGYUN 1C DEB", "group": "fengyun-1c-debris", "lat": 56.21410132791057, "lon": 83.52036536741127, "alt_km": 640.2293415923496, "timestamp": "2025-12-19T08:58:49.618161+00:00", "meta": {"OBJECT_NAME": "FENGYUN 1C DEB", "OBJECT_ID": "1999-025BBV", "EPOCH": "2025-12-18T22:56:45.153888", "MEAN_MOTION": 14.78880992, "ECCENTRICITY": 0.01901329, "INCLINATION": 97.8313, "RA_OF_ASC_NODE": 251.2425, "ARG_OF_PERICENTER": 220.8384, "MEAN_ANOMALY": 199.601, "EPHEMERIS_TYPE": 0, "CLASSIFICATION_TYPE": "U", "NORAD_CAT_ID": 30979, "ELEMENT_SET_NO": 999, "REV_AT_EPOCH": 99237, "BSTAR": 0.00073154586, "MEAN_MOTION_DOT": 7.258e-05, "MEAN_MOTION_DDOT": 0}, "tle": {"line1": "1 30979U 99025BBV 25352.95607817  .00007258  00000+0  73155-3 0  9998", "line2": "2 30979  97.8313 251.2425 0190132 220.8384 199.6010 14.78880992992377"}}, "geometry": {"type": "Point", "coordinates": [83.52036536741127, 56.21410132791057]}}, {"type": "Feature", "properties": {"norad_id": 30982, "name": "FENGYUN 1C DEB", "group": "fengyun-1c-debris", "lat": 38.06221204884946, "lon": -23.03755533580942, "alt_km": 753.9244190599029, "timestamp": "2025-12-19T08:58:49.618171+00:00", "meta": {"OBJECT_NAME": "FENGYUN 1C DEB", "OBJECT_ID": "1999-025BBY", "EPOCH": "2025-12-17T22:11:07.408320", "MEAN_MOTION": 14.50968482, "ECCENTRICITY": 0.01801545, "INCLINATION": 98.2165, "RA_OF_ASC_NODE": 342.0421, "ARG_OF_PERICENTER": 296.5434, "MEAN_ANOMALY": 91.5532, "EPHEMERIS_TYPE": 0, "CLASSIFICATION_TYPE": "U", "NORAD_CAT_ID": 30982, "ELEMENT_SET_NO": 999, "REV_AT_EPOCH": 71129, "BSTAR": 0.00028028971, "MEAN_MOTION_DOT": 1.311e-05, "MEAN_MOTION_DDOT": 0}, "tle": {"line1": "1 30982U 99025BBY 25351.92439130  .00001311  00000+0  28029-3 0  9993", "line2": "2 30982  98.2165 342.0421 0180154 296.5434  91.5532 14.50968482711295"}}, "geometry": {"type": "Point", "coordinates": [-23.03755533580942, 38.06221204884946]}}, {"type": "Feature", "properties": {"norad_id": 30984, "name": "FENGYUN 1C DEB", "group": "fengyun-1c-debris", "lat": -77.5976563847259, "lon": 168.22237496909423, "alt_km": 725.6185155292696, "timestamp": "2025-12-19T08:58:49.618181+00:00", "meta": {"OBJECT_NAME": "FENGYUN 1C DEB", "OBJECT_ID": "1999-025BCA", "EPOCH": "2025-12-14T08:34:17.695200", "MEAN_MOTION": 14.50446749, "ECCENTRICITY": 0.0127269, "INCLINATION": 98.2639, "RA_OF_ASC_NODE": 24.6654, "ARG_OF_PERICENTER": 3.1447, "MEAN_ANOMALY": 357.0519, "EPHEMERIS_TYPE": 0, "CLASSIFICATION_TYPE": "U", "NORAD_CAT_ID": 30984, "ELEMENT_SET_NO": 999, "REV_AT_EPOCH": 95187, "BSTAR": 0.00088527439, "MEAN_MOTION_DOT": 3.793e-05, "MEAN_MOTION_DDOT": 0}, "tle": {"line1": "1 30984U 99025BCA 25348.35714925  .00003793  00000+0  88527-3 0  9991", "line2": "2 30984  98.2639  24.6654 0127269   3.1447 357.0519 14.50446749951870"}}, "geometry": {"type": "Point", "coordinates": [168.22237496909423, -77.5976563847259]}}, {"type": "Feature", "properties": {"norad_id": 30988, "name": "FENGYUN 1C DEB", "group": "fengyun-1c-debris", "lat": -59.07408826797703, "lon": 107.15728158929844, "alt_km": 474.435403076026, "timestamp": "2025-12-19T08:58:49.618191+00:00", "meta": {"OBJECT_NAME": "FENGYUN 1C DEB", "OBJECT_ID": "1999-025BCE", "EPOCH": "2025-12-18T19:20:28.036320", "MEAN_MOTION": 15.26917971, "ECCENTRICITY": 0.01105453, "INCLINATION": 98.5414, "RA_OF_ASC_NODE": 301.0363, "ARG_OF_PERICENTER": 319.2824, "MEAN_ANOMALY": 40.0186, "EPHEMERIS_TYPE": 0, "CLASSIFICATION_TYPE": "U", "NORAD_CAT_ID": 30988, "ELEMENT_SET_NO": 999, "REV_AT_EPOCH": 99656, "BSTAR": 0.0015889489, "MEAN_MOTION_DOT": 0.00050464, "MEAN_MOTION_DDOT": 0}, "tle": {"line1": "1 30988U 99025BCE 25352.80588005  .00050464  00000+0  15889-2 0  9995", "line2": "2 30988  98.5414 301.0363 0110545 319.2824  40.0186 15.26917971996564"}}, "geometry": {"type": "Point", "coordinates": [107.15728158929844, -59.07408826797703]}}, {"type": "Feature", "properties": {"norad_id": 30989, "name": "FENGYUN 1C DEB", "group": "fengyun-1c-debris", "lat": -32.09314503694815, "lon": -118.7129315953611, "alt_km": 894.5992755056459, "timestamp": "2025-12-19T08:58:49.618201+00:00", "meta": {"OBJECT_NAME": "FENGYUN 1C DEB", "OBJECT_ID": "1999-025BCF", "EPOCH": "2025-12-18T21:47:51.263808", "MEAN_MOTION": 14.13967007, "ECCENTRICITY": 0.00904102, "INCLINATION": 99.0528, "RA_OF_ASC_NODE": 66.5535, "ARG_OF_PERICENTER": 82.4737, "MEAN_ANOMALY": 278.6695, "EPHEMERIS_TYPE": 0, "CLASSIFICATION_TYPE": "U", "NORAD_CAT_ID": 30989, "ELEMENT_SET_NO": 999, "REV_AT_EPOCH": 96075, "BSTAR": 0.0011247506, "MEAN_MOTION_DOT": 2.176e-05, "MEAN_MOTION_DDOT": 0}, "tle": {"line1": "1 30989U 99025BCF 25352.90823222  .00002176  00000+0  11248-2 0  9992", "line2": "2 30989  99.0528  66.5535 0090410  82.4737 278.6695 14.13967007960757"}}, "geometry": {"type": "Point", "coordinates": [-118.7129315953611, -32.09314503694815]}}, {"type": "Feature", "properties": {"norad_id": 30993, "name": "FENGYUN 1C DEB", "group": "fengyun-1c-debris", "lat": -57.571253668815395, "lon": 100.17153779211003, "alt_km": 773.3478231532899, "timestamp": "2025-12-19T08:58:49.618211+00:00", "meta": {"OBJECT_NAME": "FENGYUN 1C DEB", "OBJECT_ID": "1999-025BCK", "EPOCH": "2025-12-18T11:50:08.357856", "MEAN_MOTION": 14.35479431, "ECCENTRICITY": 0.00162109, "INCLINATION": 98.8469, "RA_OF_ASC_NODE": 85.078, "ARG_OF_PERICENTER": 355.9279, "MEAN_ANOMALY": 75.2528, "EPHEMERIS_TYPE": 0, "CLASSIFICATION_TYPE": "U", "NORAD_CAT_ID": 30993, "ELEMENT_SET_NO": 999, "REV_AT_EPOCH": 97002, "BSTAR": 0.0014601532, "MEAN_MOTION_DOT": 4.16e-05, "MEAN_MOTION_DDOT": 0}, "tle": {"line1": "1 30993U 99025BCK 25352.49315229  .00004160  00000+0  14602-2 0  9996", "line2": "2 30993  98.8469  85.0780 0016210 355.9279  75.2528 14.35479431970026"}}, "geometry": {"type": "Point", "coordinates": [100.17153779211003, -57.571253668815395]}}, {"type": "Feature", "properties": {"norad_id": 30994, "name": "FENGYUN 1C DEB", "group": "fengyun-1c-debris", "lat": 45.00530484864086, "lon": -169.5726321924978, "alt_km": 837.2053216260965, "timestamp": "2025-12-19T08:58:49.618221+00:00", "meta": {"OBJECT_NAME": "FENGYUN 1C DEB", "OBJECT_ID": "1999-025BCL", "EPOCH": "2025-12-18T20:26:24.516960", "MEAN_MOTION": 14.11774388, "ECCENTRICITY": 0.00181586, "INCLINATION": 98.6995, "RA_OF_ASC_NODE": 1.1119, "ARG_OF_PERICENTER": 157.5847, "MEAN_ANOMALY": 202.6122, "EPHEMERIS_TYPE": 0, "CLASSIFICATION_TYPE": "U", "NORAD_CAT_ID": 30994, "ELEMENT_SET_NO": 999, "REV_AT_EPOCH": 96671, "BSTAR": 0.00011680878, "MEAN_MOTION_DOT": 1.71e-06, "MEAN_MOTION_DDOT": 0}, "tle": {"line1": "1 30994U 99025BCL 25352.85167265  .00000171  00000+0  11681-3 0  9995", "line2": "2 30994  98.6995   1.1119 0018158 157.5847 202.6122 14.11774388966714"}}, "geometry": {"type": "Point", "coordinates": [-169.5726321924978, 45.00530484864086]}}]}